GLOBALSTAR M079 [+]     
1 37188U 10054A   22268.34859756 -.00000089  00000+0  83297-4 0  9994
2 37188  52.0035 291.2837 0000200 102.5526 271.5337 12.62265338550690
GLOBALSTAR M074 [+]     
1 37189U 10054B   22268.37494432 -.00000092  00000+0  65875-4 0  9990
2 37189  52.0010 290.6810 0000426  91.2405 282.5626 12.62263122551309
GLOBALSTAR M076 [+]     
1 37190U 10054C   22268.32236421 -.00000076  00000+0  15460-3 0  9995
2 37190  52.0022 290.9221 0000270  26.8923 347.1648 12.62267868551010
GLOBALSTAR M077 [+]     
1 37191U 10054D   22268.23045516 -.00000119  00000+0 -85184-4 0  9999
2 37191  52.0054 247.7701 0000448  66.0021 309.7345 12.62259956551377
GLOBALSTAR M075 [+]     
1 37192U 10054E   22268.51388113 -.00000079  00000+0  13732-3 0  9997
2 37192  51.9967 333.1477 0000281 116.4164 348.9660 12.62267996550267
GLOBALSTAR M073 [+]     
1 37193U 10054F   22268.25630595 -.00000115  00000+0 -65281-4 0  9992
2 37193  52.0042 246.9919 0000403  65.5617 308.2900 12.62267590552065
GLOBALSTAR M083 [+]     
1 37739U 11033A   22268.54132860 -.00000107  00000+0 -16125-4 0  9994
2 37739  51.9843 196.2130 0000491  97.6182  73.7768 12.62264039521113
GLOBALSTAR M088 [+]     
1 37740U 11033B   22268.27764084 -.00000083  00000+0  11692-3 0  9990
2 37740  51.9720 103.3465 0000539  99.1846  72.5194 12.62266127516626
GLOBALSTAR M091 [+]     
1 37741U 11033C   22267.70196123 -.00000103  00000+0  65428-5 0  9992
2 37741  52.0000  66.8710 0000642 114.2827 259.3271 12.62267697517343
GLOBALSTAR M085 [+]     
1 37742U 11033D   22268.55972740 -.00000103  00000+0  65239-5 0  9994
2 37742  51.9892  16.1804 0000563 115.1475 258.6840 12.62267582517969
GLOBALSTAR M081 [+]     
1 37743U 11033E   22268.58602052 -.00000110  00000+0 -35114-4 0  9991
2 37743  51.9986  18.2736 0000343 114.9312 258.2020 12.62263235518119
GLOBALSTAR M089 [+]     
1 37744U 11033F   22268.48687400 -.00000071  00000+0  18333-3 0  9999
2 37744  51.9951 332.9940 0000536  67.6578  34.4831 12.62268097518943
GLOBALSTAR M084 [+]     
1 38040U 11080A   22268.02028912 -.00000110  00000+0 -35249-4 0  9999
2 38040  51.9998 201.1737 0000656  53.6083  27.0203 12.62268613496865
GLOBALSTAR M080 [+]     
1 38041U 11080B   22268.56830358 -.00000110  00000+0 -34587-4 0  9998
2 38041  52.0050 200.7631 0000724  45.5718 125.8833 12.62268792497052
GLOBALSTAR M082 [+]     
1 38042U 11080C   22268.42282941 -.00000072  00000+0  17728-3 0  9996
2 38042  52.0065 156.5467 0000838 107.8858  63.1057 12.62271418497744
GLOBALSTAR M092 [+]     
1 38043U 11080D   22268.20351204 -.00000109  00000+0 -26759-4 0  9999
2 38043  52.0073 247.5376 0000743  61.9350 311.2767 12.62263597496176
GLOBALSTAR M090 [+]     
1 38044U 11080E   22268.44929568 -.00000074  00000+0  16573-3 0  9992
2 38044  51.9875 151.5586 0000546  86.9227  84.4173 12.62266272497863
GLOBALSTAR M086 [+]     
1 38045U 11080F   22268.39636297 -.00000075  00000+0  15967-3 0  9998
2 38045  51.9885 152.1920 0000601 309.8944 221.6151 12.62265563497806
GLOBALSTAR M097 [+]     
1 39072U 13005A   22268.46451567 -.00000112  00000+0 -48019-4 0  9999
2 39072  52.0050  65.5165 0000542 122.5146 237.5773 12.62275211445067
GLOBALSTAR M093 [+]     
1 39073U 13005B   22268.51705700 -.00000109  00000+0 -27866-4 0  9990
2 39073  51.9818  60.2532 0000516 133.5276 226.5633 12.62264983445028
GLOBALSTAR M094 [+]     
1 39074U 13005C   22268.35881721 -.00000077  00000+0  14764-3 0  9996
2 39074  51.9980 334.1276 0000331 113.9520 246.1381 12.62269070446612
GLOBALSTAR M096 [+]     
1 39075U 13005D   22268.45130995 -.00000106  00000+0 -10913-4 0  9995
2 39075  52.0098  21.5791 0000440 124.1958 235.8951 12.62269928445545
GLOBALSTAR M078 [+]     
1 39076U 13005E   22267.87054967 -.00000083  00000+0  11363-3 0  9997
2 39076  51.9858 109.2121 0001379 114.3879 245.7131 12.62262646444093
GLOBALSTAR M095 [+]     
1 39077U 13005F   22267.73823871 -.00000084  00000+0  11038-3 0  9991
2 39077  51.9784 107.3041 0001004 121.9404 238.1560 12.62270988443937
GLOBALSTAR FM15 [+]     
1 52888U 22064A   22268.13898304 -.00000128  00000+0  00000+0 0  9991
2 52888  51.9759 248.7318 0009497 201.8642 158.1853 13.37541796 13072
